ATLAS CENTAUR 2         
1 00694U 63047A   26027.40090945  .00002135  00000+0  25177-3 0  9992
2 00694  30.3533  66.3621 0548189  76.4589 289.6458 14.11950089125789
THOR AGENA D R/B        
1 00733U 64002A   26027.49513558  .00000417  00000+0  16584-3 0  9990
2 00733  99.1227  38.5909 0033258  20.0950 340.1534 14.33992403232393
SL-3 R/B                
1 00877U 64053B   26027.63080114  .00000585  00000+0  13763-3 0  9990
2 00877  65.0768  91.6097 0077525 305.2961  54.0905 14.61323394260793
SL-8 R/B                
1 02802U 67045B   26027.81439105  .00000404  00000+0  11933-3 0  9999
2 02802  74.0100  64.4255 0062851  81.3577 279.4694 14.45584637 83116
SL-8 R/B                
1 03230U 68040B   26027.44377200  .00006112  00000+0  45456-3 0  9996
2 03230  74.0315  37.9495 0025979 233.0903 126.7905 15.02922388 83819
OAO 2                   
1 03597U 68110A   26027.59711270  .00000534  00000+0  14903-3 0  9990
2 03597  34.9928 134.6465 0005953 232.8696 127.1451 14.47279914 13146
ISIS 1                  
1 03669U 69009A   26027.82535674  .00000617  00000+0  43152-3 0  9996
2 03669  88.4543 159.7613 1707880 171.6172 191.7788 11.30391672343910
SERT 2                  
1 04327U 70009A   26027.74783215  .00000064  00000+0  14382-3 0  9996
2 04327  99.2707 333.0935 0004028 271.7051 107.0606 13.58725401774335
SL-3 R/B                
1 05118U 71028B   26027.78242144  .00042327  00000+0  56038-3 0  9994
2 05118  81.2369 102.4335 0017907  76.9991 283.3258 15.57916069982299
ASTEX 1                 
1 05560U 71089A   26027.78225576  .00001011  00000+0  25735-3 0  9997
2 05560  92.7156 138.5225 0014257 216.3202 143.7037 14.50716580856370
SL-8 R/B                
1 05730U 71119B   26027.58800026  .00007714  00000+0  40166-3 0  9998
2 05730  73.8863 252.4816 0555206 227.5162 127.7805 14.36704873649583
OAO 3 (COPERNICUS)      
1 06153U 72065A   26027.78771675  .00000720  00000+0  15212-3 0  9992
2 06153  35.0044 170.3422 0006638 192.1725 312.4556 14.59958314840212
