CCSDS_OMM_VERS = 2.0
CREATION_DATE  = 
ORIGINATOR     = 

OBJECT_NAME    = ATLAS CENTAUR 2
OBJECT_ID      = 1963-047A
CENTER_NAME    = EARTH
REF_FRAME      = TEME
TIME_SYSTEM    = UTC
MEAN_ELEMENT_THEORY = SGP/SGP4

EPOCH          = 2026-01-27T09:37:18.576480
MEAN_MOTION    = 14.11950089
ECCENTRICITY   = .05481898
INCLINATION    = 30.3533
RA_OF_ASC_NODE = 66.3621
ARG_OF_PERICENTER = 76.4589
MEAN_ANOMALY   = 289.6458

EPHEMERIS_TYPE = 0
CLASSIFICATION_TYPE = U
NORAD_CAT_ID   = 694
ELEMENT_SET_NO = 999
REV_AT_EPOCH   = 12578
BSTAR          = .25176989E-3
MEAN_MOTION_DOT = .2135E-4
MEAN_MOTION_DDOT = 0

CCSDS_OMM_VERS = 2.0
CREATION_DATE  = 
ORIGINATOR     = 

OBJECT_NAME    = THOR AGENA D R/B
OBJECT_ID      = 1964-002A
CENTER_NAME    = EARTH
REF_FRAME      = TEME
TIME_SYSTEM    = UTC
MEAN_ELEMENT_THEORY = SGP/SGP4

EPOCH          = 2026-01-27T11:52:59.714112
MEAN_MOTION    = 14.33992403
ECCENTRICITY   = .00332582
INCLINATION    = 99.1227
RA_OF_ASC_NODE = 38.5909
ARG_OF_PERICENTER = 20.0950
MEAN_ANOMALY   = 340.1534

EPHEMERIS_TYPE = 0
CLASSIFICATION_TYPE = U
NORAD_CAT_ID   = 733
ELEMENT_SET_NO = 999
REV_AT_EPOCH   = 23239
BSTAR          = .16583647E-3
MEAN_MOTION_DOT = .417E-5
MEAN_MOTION_DDOT = 0

CCSDS_OMM_VERS = 2.0
CREATION_DATE  = 
ORIGINATOR     = 

OBJECT_NAME    = SL-3 R/B
OBJECT_ID      = 1964-053B
CENTER_NAME    = EARTH
REF_FRAME      = TEME
TIME_SYSTEM    = UTC
MEAN_ELEMENT_THEORY = SGP/SGP4

EPOCH          = 2026-01-27T15:08:21.218496
MEAN_MOTION    = 14.61323394
ECCENTRICITY   = .0077525
INCLINATION    = 65.0768
RA_OF_ASC_NODE = 91.6097
ARG_OF_PERICENTER = 305.2961
MEAN_ANOMALY   = 54.0905

EPHEMERIS_TYPE = 0
CLASSIFICATION_TYPE = U
NORAD_CAT_ID   = 877
ELEMENT_SET_NO = 999
REV_AT_EPOCH   = 26079
BSTAR          = .13763E-3
MEAN_MOTION_DOT = .585E-5
MEAN_MOTION_DDOT = 0

CCSDS_OMM_VERS = 2.0
CREATION_DATE  = 
ORIGINATOR     = 

OBJECT_NAME    = SL-8 R/B
OBJECT_ID      = 1967-045B
CENTER_NAME    = EARTH
REF_FRAME      = TEME
TIME_SYSTEM    = UTC
MEAN_ELEMENT_THEORY = SGP/SGP4

EPOCH          = 2026-01-27T19:32:43.386720
MEAN_MOTION    = 14.45584637
ECCENTRICITY   = .0062851
INCLINATION    = 74.0100
RA_OF_ASC_NODE = 64.4255
ARG_OF_PERICENTER = 81.3577
MEAN_ANOMALY   = 279.4694

EPHEMERIS_TYPE = 0
CLASSIFICATION_TYPE = U
NORAD_CAT_ID   = 2802
ELEMENT_SET_NO = 999
REV_AT_EPOCH   = 8311
BSTAR          = .11933E-3
MEAN_MOTION_DOT = .404E-5
MEAN_MOTION_DDOT = 0

CCSDS_OMM_VERS = 2.0
CREATION_DATE  = 
ORIGINATOR     = 

OBJECT_NAME    = SL-8 R/B
OBJECT_ID      = 1968-040B
CENTER_NAME    = EARTH
REF_FRAME      = TEME
TIME_SYSTEM    = UTC
MEAN_ELEMENT_THEORY = SGP/SGP4

EPOCH          = 2026-01-27T10:39:01.900800
MEAN_MOTION    = 15.02922388
ECCENTRICITY   = .00259797
INCLINATION    = 74.0315
RA_OF_ASC_NODE = 37.9495
ARG_OF_PERICENTER = 233.0903
MEAN_ANOMALY   = 126.7905

EPHEMERIS_TYPE = 0
CLASSIFICATION_TYPE = U
NORAD_CAT_ID   = 3230
ELEMENT_SET_NO = 999
REV_AT_EPOCH   = 8381
BSTAR          = .45455639E-3
MEAN_MOTION_DOT = .6112E-4
MEAN_MOTION_DDOT = 0

CCSDS_OMM_VERS = 2.0
CREATION_DATE  = 
ORIGINATOR     = 

OBJECT_NAME    = OAO 2
OBJECT_ID      = 1968-110A
CENTER_NAME    = EARTH
REF_FRAME      = TEME
TIME_SYSTEM    = UTC
MEAN_ELEMENT_THEORY = SGP/SGP4

EPOCH          = 2026-01-27T14:19:50.537280
MEAN_MOTION    = 14.47279914
ECCENTRICITY   = .0005953
INCLINATION    = 34.9928
RA_OF_ASC_NODE = 134.6465
ARG_OF_PERICENTER = 232.8696
MEAN_ANOMALY   = 127.1451

EPHEMERIS_TYPE = 0
CLASSIFICATION_TYPE = U
NORAD_CAT_ID   = 3597
ELEMENT_SET_NO = 999
REV_AT_EPOCH   = 1314
BSTAR          = .14903E-3
MEAN_MOTION_DOT = .534E-5
MEAN_MOTION_DDOT = 0

CCSDS_OMM_VERS = 2.0
CREATION_DATE  = 
ORIGINATOR     = 

OBJECT_NAME    = ISIS 1
OBJECT_ID      = 1969-009A
CENTER_NAME    = EARTH
REF_FRAME      = TEME
TIME_SYSTEM    = UTC
MEAN_ELEMENT_THEORY = SGP/SGP4

EPOCH          = 2026-01-27T19:48:30.822336
MEAN_MOTION    = 11.30391672
ECCENTRICITY   = .170788
INCLINATION    = 88.4543
RA_OF_ASC_NODE = 159.7613
ARG_OF_PERICENTER = 171.6172
MEAN_ANOMALY   = 191.7788

EPHEMERIS_TYPE = 0
CLASSIFICATION_TYPE = U
NORAD_CAT_ID   = 3669
ELEMENT_SET_NO = 999
REV_AT_EPOCH   = 34391
BSTAR          = .43152E-3
MEAN_MOTION_DOT = .617E-5
MEAN_MOTION_DDOT = 0

CCSDS_OMM_VERS = 2.0
CREATION_DATE  = 
ORIGINATOR     = 

OBJECT_NAME    = SERT 2
OBJECT_ID      = 1970-009A
CENTER_NAME    = EARTH
REF_FRAME      = TEME
TIME_SYSTEM    = UTC
MEAN_ELEMENT_THEORY = SGP/SGP4

EPOCH          = 2026-01-27T17:56:52.697760
MEAN_MOTION    = 13.58725401
ECCENTRICITY   = .0004028
INCLINATION    = 99.2707
RA_OF_ASC_NODE = 333.0935
ARG_OF_PERICENTER = 271.7051
MEAN_ANOMALY   = 107.0606

EPHEMERIS_TYPE = 0
CLASSIFICATION_TYPE = U
NORAD_CAT_ID   = 4327
ELEMENT_SET_NO = 999
REV_AT_EPOCH   = 77433
BSTAR          = .14382E-3
MEAN_MOTION_DOT = .64E-6
MEAN_MOTION_DDOT = 0

CCSDS_OMM_VERS = 2.0
CREATION_DATE  = 
ORIGINATOR     = 

OBJECT_NAME    = SL-3 R/B
OBJECT_ID      = 1971-028B
CENTER_NAME    = EARTH
REF_FRAME      = TEME
TIME_SYSTEM    = UTC
MEAN_ELEMENT_THEORY = SGP/SGP4

EPOCH          = 2026-01-27T18:46:41.212416
MEAN_MOTION    = 15.57916069
ECCENTRICITY   = .0017907
INCLINATION    = 81.2369
RA_OF_ASC_NODE = 102.4335
ARG_OF_PERICENTER = 76.9991
MEAN_ANOMALY   = 283.3258

EPHEMERIS_TYPE = 0
CLASSIFICATION_TYPE = U
NORAD_CAT_ID   = 5118
ELEMENT_SET_NO = 999
REV_AT_EPOCH   = 98229
BSTAR          = .56038E-3
MEAN_MOTION_DOT = .42327E-3
MEAN_MOTION_DDOT = 0

CCSDS_OMM_VERS = 2.0
CREATION_DATE  = 
ORIGINATOR     = 

OBJECT_NAME    = ASTEX 1
OBJECT_ID      = 1971-089A
CENTER_NAME    = EARTH
REF_FRAME      = TEME
TIME_SYSTEM    = UTC
MEAN_ELEMENT_THEORY = SGP/SGP4

EPOCH          = 2026-01-27T18:46:26.897664
MEAN_MOTION    = 14.50716580
ECCENTRICITY   = .0014257
INCLINATION    = 92.7156
RA_OF_ASC_NODE = 138.5225
ARG_OF_PERICENTER = 216.3202
MEAN_ANOMALY   = 143.7037

EPHEMERIS_TYPE = 0
CLASSIFICATION_TYPE = U
NORAD_CAT_ID   = 5560
ELEMENT_SET_NO = 999
REV_AT_EPOCH   = 85637
BSTAR          = .25735E-3
MEAN_MOTION_DOT = .1011E-4
MEAN_MOTION_DDOT = 0

CCSDS_OMM_VERS = 2.0
CREATION_DATE  = 
ORIGINATOR     = 

OBJECT_NAME    = SL-8 R/B
OBJECT_ID      = 1971-119B
CENTER_NAME    = EARTH
REF_FRAME      = TEME
TIME_SYSTEM    = UTC
MEAN_ELEMENT_THEORY = SGP/SGP4

EPOCH          = 2026-01-27T14:06:43.222464
MEAN_MOTION    = 14.36704873
ECCENTRICITY   = .0555206
INCLINATION    = 73.8863
RA_OF_ASC_NODE = 252.4816
ARG_OF_PERICENTER = 227.5162
MEAN_ANOMALY   = 127.7805

EPHEMERIS_TYPE = 0
CLASSIFICATION_TYPE = U
NORAD_CAT_ID   = 5730
ELEMENT_SET_NO = 999
REV_AT_EPOCH   = 64958
BSTAR          = .40166E-3
MEAN_MOTION_DOT = .7714E-4
MEAN_MOTION_DDOT = 0

CCSDS_OMM_VERS = 2.0
CREATION_DATE  = 
ORIGINATOR     = 

OBJECT_NAME    = OAO 3 (COPERNICUS)
OBJECT_ID      = 1972-065A
CENTER_NAME    = EARTH
REF_FRAME      = TEME
TIME_SYSTEM    = UTC
MEAN_ELEMENT_THEORY = SGP/SGP4

EPOCH          = 2026-01-27T18:54:18.727200
MEAN_MOTION    = 14.59958314
ECCENTRICITY   = .0006638
INCLINATION    = 35.0044
RA_OF_ASC_NODE = 170.3422
ARG_OF_PERICENTER = 192.1725
MEAN_ANOMALY   = 312.4556

EPHEMERIS_TYPE = 0
CLASSIFICATION_TYPE = U
NORAD_CAT_ID   = 6153
ELEMENT_SET_NO = 999
REV_AT_EPOCH   = 84021
BSTAR          = .15212E-3
MEAN_MOTION_DOT = .72E-5
MEAN_MOTION_DDOT = 0

